{
  "type": "FeatureCollection",
  "features": [
    {
      "type": "Feature",
      "properties": {
        "norad_id": 28051,
        "name": "IRS-P6 (RESOURCESAT-1)",
        "group": "resource",
        "lat": 44.45680697147663,
        "lon": -139.8603460757756,
        "alt_km": 727.9936904153428,
        "timestamp": "2025-12-17T19:34:07.701179+00:00",
        "meta_object_name": "IRS-P6 (RESOURCESAT-1)",
        "meta_object_id": "2003-046A",
        "meta_epoch": "2025-12-17T08:57:27.116064",
        "meta_mean_motion": 14.36077063,
        "meta_eccentricity": 0.00643826,
        "meta_inclination": 98.2179,
        "meta_ra_of_asc_node": 31.566,
        "meta_arg_of_pericenter": 166.8177,
        "meta_mean_anomaly": 203.9694,
        "meta_ephemeris_type": 0,
        "meta_classification_type": "U",
        "meta_norad_cat_id": 28051,
        "meta_element_set_no": 999,
        "meta_rev_at_epoch": 15443,
        "meta_bstar": 6.8898413e-05,
        "meta_mean_motion_dot": 1.64e-06,
        "meta_mean_motion_ddot": 0,
        "tle_line1": "1 28051U 03046A   25351.37323051  .00000164  00000+0  68898-4 0  9992",
        "tle_line2": "2 28051  98.2179  31.5660 0064382 166.8177 203.9694 14.36077063154431"
      },
      "geometry": {
        "type": "Point",
        "coordinates": [
          -139.8603460757756,
          44.45680697147663
        ]
      }
    },
    {
      "type": "Feature",
      "properties": {
        "norad_id": 28220,
        "name": "SHIYAN-1 (SY-1)",
        "group": "resource",
        "lat": -68.4657742194462,
        "lon": -146.932411380357,
        "alt_km": 486.17934552401584,
        "timestamp": "2025-12-17T19:34:07.701191+00:00",
        "meta_object_name": "SHIYAN-1 (SY-1)",
        "meta_object_id": "2004-012A",
        "meta_epoch": "2025-12-17T04:20:08.374272",
        "meta_mean_motion": 15.28261484,
        "meta_eccentricity": 0.00053626,
        "meta_inclination": 97.8938,
        "meta_ra_of_asc_node": 52.9816,
        "meta_arg_of_pericenter": 308.0316,
        "meta_mean_anomaly": 52.0437,
        "meta_ephemeris_type": 0,
        "meta_classification_type": "U",
        "meta_norad_cat_id": 28220,
        "meta_element_set_no": 999,
        "meta_rev_at_epoch": 18324,
        "meta_bstar": 0.00041405931,
        "meta_mean_motion_dot": 0.00011329,
        "meta_mean_motion_ddot": 0,
        "tle_line1": "1 28220U 04012A   25351.18065248  .00011329  00000+0  41406-3 0  9994",
        "tle_line2": "2 28220  97.8938  52.9816 0005362 308.0316  52.0437 15.28261484183248"
      },
      "geometry": {
        "type": "Point",
        "coordinates": [
          -146.932411380357,
          -68.4657742194462
        ]
      }
    },
    {
      "type": "Feature",
      "properties": {
        "norad_id": 28376,
        "name": "AURA",
        "group": "resource",
        "lat": 43.24223891295888,
        "lon": 129.9747910616626,
        "alt_km": 685.8103245954144,
        "timestamp": "2025-12-17T19:34:07.701202+00:00",
        "meta_object_name": "AURA",
        "meta_object_id": "2004-026A",
        "meta_epoch": "2025-12-17T07:26:30.957792",
        "meta_mean_motion": 14.60957539,
        "meta_eccentricity": 0.00013213,
        "meta_inclination": 98.3189,
        "meta_ra_of_asc_node": 301.5579,
        "meta_arg_of_pericenter": 93.3534,
        "meta_mean_anomaly": 266.7818,
        "meta_ephemeris_type": 0,
        "meta_classification_type": "U",
        "meta_norad_cat_id": 28376,
        "meta_element_set_no": 999,
        "meta_rev_at_epoch": 13965,
        "meta_bstar": 0.00019475252,
        "meta_mean_motion_dot": 9.06e-06,
        "meta_mean_motion_ddot": 0,
        "tle_line1": "1 28376U 04026A   25351.31008053  .00000906  00000+0  19475-3 0  9997",
        "tle_line2": "2 28376  98.3189 301.5579 0001321  93.3534 266.7818 14.60957539139651"
      },
      "geometry": {
        "type": "Point",
        "coordinates": [
          129.9747910616626,
          43.24223891295888
        ]
      }
    },
    {
      "type": "Feature",
      "properties": {
        "norad_id": 28649,
        "name": "IRS-P5 (CARTOSAT-1)",
        "group": "resource",
        "lat": 13.455214673066902,
        "lon": -160.1780863075499,
        "alt_km": 598.105112463365,
        "timestamp": "2025-12-17T19:34:07.701213+00:00",
        "meta_object_name": "IRS-P5 (CARTOSAT-1)",
        "meta_object_id": "2005-017A",
        "meta_epoch": "2025-12-17T07:32:45.906144",
        "meta_mean_motion": 14.90420475,
        "meta_eccentricity": 9.363e-05,
        "meta_inclination": 97.549,
        "meta_ra_of_asc_node": 17.525,
        "meta_arg_of_pericenter": 45.3995,
        "meta_mean_anomaly": 314.73,
        "meta_ephemeris_type": 0,
        "meta_classification_type": "U",
        "meta_norad_cat_id": 28649,
        "meta_element_set_no": 999,
        "meta_rev_at_epoch": 11672,
        "meta_bstar": 0.0001486043,
        "meta_mean_motion_dot": 1.396e-05,
        "meta_mean_motion_ddot": 0,
        "tle_line1": "1 28649U 05017A   25351.31442021  .00001396  00000+0  14860-3 0  9995",
        "tle_line2": "2 28649  97.5490  17.5250 0000936  45.3995 314.7300 14.90420475116729"
      },
      "geometry": {
        "type": "Point",
        "coordinates": [
          -160.1780863075499,
          13.455214673066902
        ]
      }
    },
    {
      "type": "Feature",
      "properties": {
        "norad_id": 28893,
        "name": "SINAH 1",
        "group": "resource",
        "lat": 36.67700270701258,
        "lon": 114.17470990475844,
        "alt_km": 676.785151009296,
        "timestamp": "2025-12-17T19:34:07.701224+00:00",
        "meta_object_name": "SINAH 1",
        "meta_object_id": "2005-043D",
        "meta_epoch": "2025-12-17T07:55:01.771968",
        "meta_mean_motion": 14.63967545,
        "meta_eccentricity": 0.0015534,
        "meta_inclination": 98.2606,
        "meta_ra_of_asc_node": 119.8994,
        "meta_arg_of_pericenter": 123.5157,
        "meta_mean_anomaly": 236.7532,
        "meta_ephemeris_type": 0,
        "meta_classification_type": "U",
        "meta_norad_cat_id": 28893,
        "meta_element_set_no": 999,
        "meta_rev_at_epoch": 7391,
        "meta_bstar": 8.0162732e-05,
        "meta_mean_motion_dot": 3.71e-06,
        "meta_mean_motion_ddot": 0,
        "tle_line1": "1 28893U 05043D   25351.32988162  .00000371  00000+0  80163-4 0  9999",
        "tle_line2": "2 28893  98.2606 119.8994 0015534 123.5157 236.7532 14.63967545 73914"
      },
      "geometry": {
        "type": "Point",
        "coordinates": [
          114.17470990475844,
          36.67700270701258
        ]
      }
    },
    {
      "type": "Feature",
      "properties": {
        "norad_id": 29079,
        "name": "EROS B",
        "group": "resource",
        "lat": 15.201257353917521,
        "lon": -69.35481020322763,
        "alt_km": 361.8774568765948,
        "timestamp": "2025-12-17T19:34:07.701235+00:00",
        "meta_object_name": "EROS B",
        "meta_object_id": "2006-014A",
        "meta_epoch": "2025-12-17T06:37:50.590272",
        "meta_mean_motion": 15.69707885,
        "meta_eccentricity": 0.00029918,
        "meta_inclination": 97.3463,
        "meta_ra_of_asc_node": 108.0703,
        "meta_arg_of_pericenter": 309.8415,
        "meta_mean_anomaly": 50.2584,
        "meta_ephemeris_type": 0,
        "meta_classification_type": "U",
        "meta_norad_cat_id": 29079,
        "meta_element_set_no": 999,
        "meta_rev_at_epoch": 9151,
        "meta_bstar": 0.0012492635,
        "meta_mean_motion_dot": 0.00150424,
        "meta_mean_motion_ddot": 0,
        "tle_line1": "1 29079U 06014A   25351.27627998  .00150424  00000+0  12493-2 0  9990",
        "tle_line2": "2 29079  97.3463 108.0703 0002991 309.8415  50.2584 15.69707885 91517"
      },
      "geometry": {
        "type": "Point",
        "coordinates": [
          -69.35481020322763,
          15.201257353917521
        ]
      }
    },
    {
      "type": "Feature",
      "properties": {
        "norad_id": 29228,
        "name": "RESURS-DK 1",
        "group": "resource",
        "lat": 46.218071343311834,
        "lon": -113.69946173672515,
        "alt_km": 527.650079937217,
        "timestamp": "2025-12-17T19:34:07.701245+00:00",
        "meta_object_name": "RESURS-DK 1",
        "meta_object_id": "2006-021A",
        "meta_epoch": "2025-12-17T07:53:01.900608",
        "meta_mean_motion": 15.12187613,
        "meta_eccentricity": 0.00069378,
        "meta_inclination": 69.9337,
        "meta_ra_of_asc_node": 89.9796,
        "meta_arg_of_pericenter": 255.5411,
        "meta_mean_anomaly": 104.4985,
        "meta_ephemeris_type": 0,
        "meta_classification_type": "U",
        "meta_norad_cat_id": 29228,
        "meta_element_set_no": 999,
        "meta_rev_at_epoch": 7507,
        "meta_bstar": 0.00014104064,
        "meta_mean_motion_dot": 2.334e-05,
        "meta_mean_motion_ddot": 0,
        "tle_line1": "1 29228U 06021A   25351.32849422  .00002334  00000+0  14104-3 0  9996",
        "tle_line2": "2 29228  69.9337  89.9796 0006937 255.5411 104.4985 15.12187613 75073"
      },
      "geometry": {
        "type": "Point",
        "coordinates": [
          -113.69946173672515,
          46.218071343311834
        ]
      }
    }
  ]
}